NORAD_CAT_ID,OBJECT_NAME,OBJECT_TYPE,EPOCH,MEAN_MOTION,ECCENTRICITY,INCLINATION,RA_OF_ASC_NODE,ARG_OF_PERICENTER,MEAN_ANOMALY,BSTAR,MEAN_MOTION_DOT,MEAN_MOTION_DDOT,TLE_LINE0,TLE_LINE1,TLE_LINE2,SEMIMAJOR_AXIS,PERIOD,APOGEE,PERIGEE,DECAYED
55277.0,STARLINK-5299,PAYLOAD,2023-04-25 10:14:15,14.99137008,0.0003188,69.9994,170.1341,276.2028,83.8768,3.5699e-05,3.41e-06,0.0,0 STARLINK-5299,1 55277U 23010J   23115.42656819  .00000341  00000-0  35699-4 0  9999,2 55277  69.9994 170.1341 0003188 276.2028  83.8768 14.99137008 15309,6947.698,96.055,571.778,567.348,0.0
55277.0,STARLINK-5299,PAYLOAD,2023-04-25 21:26:50,14.99131748,0.0002988,70.0,168.9548,285.0427,75.0401,-4.5462e-05,-6.47e-06,0.0,0 STARLINK-5299,1 55277U 23010J   23115.89364373 -.00000647  00000-0 -45462-4 0  9991,2 55277  70.0000 168.9548 0002988 285.0427  75.0401 14.99131748 15371,6947.715,96.056,571.656,567.504,0.0
55277.0,STARLINK-5299,PAYLOAD,2023-04-26 13:27:40,14.99136434,0.0003495,69.9995,167.2706,277.9917,82.0845,-0.00031693,-3.953e-05,0.0,0 STARLINK-5299,1 55277U 23010J   23116.56088856 -.00003953  00000-0 -31693-3 0  9998,2 55277  69.9995 167.2706 0003495 277.9917  82.0845 14.99136434 15789,6947.7,96.055,571.993,567.137,0.0
55277.0,STARLINK-5299,PAYLOAD,2023-04-27 11:52:50,14.9913032,0.0003215,69.9992,164.9123,280.6392,79.4406,-1.7178e-05,-3.03e-06,0.0,0 STARLINK-5299,1 55277U 23010J   23117.49502378 -.00000303  00000-0 -17178-4 0  9990,2 55277  69.9992 164.9123 0003215 280.6392  79.4406 14.99130320 15614,6947.719,96.056,571.818,567.35,0.0
55277.0,STARLINK-5299,PAYLOAD,2023-04-28 05:29:44,14.9913376,0.0003431,69.9988,163.06,281.1036,78.9737,0.00018432,2.153e-05,0.0,0 STARLINK-5299,1 55277U 23010J   23118.22898248  .00002153  00000-0  18432-3 0  9992,2 55277  69.9988 163.0600 0003431 281.1036  78.9737 14.99133760 15724,6947.708,96.055,571.957,567.19,0.0
55277.0,STARLINK-5299,PAYLOAD,2023-04-28 11:54:03,14.99137896,0.0003457,69.9987,162.3863,280.8268,79.2502,0.0001866,2.181e-05,0.0,0 STARLINK-5299,1 55277U 23010J   23118.49587630  .00002181  00000-0  18660-3 0  9995,2 55277  69.9987 162.3863 0003457 280.8268  79.2502 14.99137896 16074,6947.696,96.055,571.962,567.159,0.0
55277.0,STARLINK-5299,PAYLOAD,2023-04-29 11:55:18,14.99138666,0.0003247,69.9991,159.8606,274.152,85.9269,3.7688e-05,3.65e-06,0.0,0 STARLINK-5299,1 55277U 23010J   23119.49673996  .00000365  00000-0  37688-4 0  9991,2 55277  69.9991 159.8606 0003247 274.1520  85.9269 14.99138666 15911,6947.693,96.055,571.814,567.302,0.0
55277.0,STARLINK-5299,PAYLOAD,2023-04-30 11:56:32,14.99143008,0.0003239,69.9989,157.3338,273.6291,86.4498,-4.2066e-05,-6.06e-06,0.0,0 STARLINK-5299,1 55277U 23010J   23120.49759690 -.00000606  00000-0 -42066-4 0  9995,2 55277  69.9989 157.3338 0003239 273.6291  86.4498 14.99143008 16066,6947.68,96.055,571.795,567.295,0.0
55277.0,STARLINK-5299,PAYLOAD,2023-05-01 11:57:47,14.99135597,0.0003335,69.9986,154.8057,273.2875,86.7903,-4.2407e-05,-6.1e-06,0.0,0 STARLINK-5299,1 55277U 23010J   23121.49846098 -.00000610  00000-0 -42407-4 0  9999,2 55277  69.9986 154.8057 0003335 273.2875  86.7903 14.99135597 16219,6947.703,96.055,571.885,567.251,0.0
55277.0,STARLINK-5299,PAYLOAD,2023-05-02 11:59:00,14.99140884,0.0003356,69.9984,152.2784,272.3673,87.7102,1.3735e-05,7.4e-07,0.0,0 STARLINK-5299,1 55277U 23010J   23122.49931543  .00000074  00000-0  13735-4 0  9994,2 55277  69.9984 152.2784 0003356 272.3673  87.7102 14.99140884 16368,6947.686,96.055,571.883,567.22,0.0
55277.0,STARLINK-5299,PAYLOAD,2023-05-03 12:00:15,14.99137142,0.0003468,69.9982,149.7519,272.9005,87.1758,3.1958e-05,2.96e-06,0.0,0 STARLINK-5299,1 55277U 23010J   23123.50017682  .00000296  00000-0  31958-4 0  9999,2 55277  69.9982 149.7519 0003468 272.9005  87.1758 14.99137142 16513,6947.698,96.055,571.972,567.154,0.0
55277.0,STARLINK-5299,PAYLOAD,2023-05-04 10:25:24,14.99140438,0.0003467,69.9982,147.3937,272.3428,87.7334,-8.202e-06,-1.94e-06,0.0,0 STARLINK-5299,1 55277U 23010J   23124.43431075 -.00000194  00000-0 -82020-5 0  9994,2 55277  69.9982 147.3937 0003467 272.3428  87.7334 14.99140438 16960,6947.688,96.055,571.962,567.144,0.0
55277.0,STARLINK-5299,PAYLOAD,2023-05-05 05:38:24,14.99137289,0.0003506,69.998,145.3722,272.3088,87.767,-1.6097e-05,-2.9e-06,0.0,0 STARLINK-5299,1 55277U 23010J   23125.23500030 -.00000290  00000-0 -16097-4 0  9998,2 55277  69.9980 145.3722 0003506 272.3088  87.7670 14.99137289 16776,6947.698,96.055,571.998,567.127,0.0
55277.0,STARLINK-5299,PAYLOAD,2023-05-05 18:27:03,14.99146327,0.000351,69.9982,144.0247,272.4425,87.6332,-0.00015092,-1.933e-05,0.0,0 STARLINK-5299,1 55277U 23010J   23125.76878967 -.00001933  00000-0 -15092-3 0  9991,2 55277  69.9982 144.0247 0003510 272.4425  87.6332 14.99146327 17168,6947.67,96.055,571.973,567.096,0.0
55277.0,STARLINK-5299,PAYLOAD,2023-05-06 05:39:38,14.9913919,0.0003584,69.9979,142.8451,270.6804,89.3945,-3.3082e-06,-1.34e-06,0.0,0 STARLINK-5299,1 55277U 23010J   23126.23585839 -.00000134  00000-0 -33082-5 0  9990,2 55277  69.9979 142.8451 0003584 270.6804  89.3945 14.99139190 16921,6947.692,96.055,572.047,567.067,0.0
55277.0,STARLINK-5299,PAYLOAD,2023-05-06 07:15:43,14.99139436,0.0003578,69.9979,142.6767,270.6605,89.4145,2.3511e-07,-9.1e-07,0.0,0 STARLINK-5299,1 55277U 23010J   23126.30258209 -.00000091  00000-0  23511-6 0  9994,2 55277  69.9979 142.6767 0003578 270.6605  89.4145 14.99139436 17243,6947.691,96.055,572.042,567.07,0.0
55277.0,STARLINK-5299,PAYLOAD,2023-05-07 10:29:07,14.99137953,0.0003573,69.9979,139.8131,270.3584,89.7166,1.9287e-05,1.41e-06,0.0,0 STARLINK-5299,1 55277U 23010J   23127.43689001  .00000141  00000-0  19287-4 0  9995,2 55277  69.9979 139.8131 0003573 270.3584  89.7166 14.99137953 17107,6947.695,96.055,572.043,567.078,0.0
55277.0,STARLINK-5299,PAYLOAD,2023-05-07 18:29:32,14.99137447,0.0003561,69.9979,138.9708,270.3875,89.6876,1.8411e-06,-7.1e-07,0.0,0 STARLINK-5299,1 55277U 23010J   23127.77051084 -.00000071  00000-0  18411-5 0  9998,2 55277  69.9979 138.9708 0003561 270.3875  89.6876 14.99137447 17461,6947.697,96.055,572.036,567.088,0.0
55277.0,STARLINK-5299,PAYLOAD,2023-05-08 10:30:21,14.99137158,0.0003539,69.9979,137.2862,269.9759,90.0995,-2.2534e-05,-3.68e-06,0.0,0 STARLINK-5299,1 55277U 23010J   23128.43775204 -.00000368  00000-0 -22534-4 0  9999,2 55277  69.9979 137.2862 0003539 269.9759  90.0995 14.99137158 17258,6947.698,96.055,572.022,567.104,0.0
55277.0,STARLINK-5299,PAYLOAD,2023-05-08 18:30:46,14.9913802,0.0003538,69.9979,136.444,270.0161,90.0593,3.5952e-07,-8.9e-07,0.0,0 STARLINK-5299,1 55277U 23010J   23128.77137086 -.00000089  00000-0  35952-6 0  9995,2 55277  69.9979 136.4440 0003538 270.0161  90.0593 14.99138020 17613,6947.695,96.055,572.018,567.102,0.0
55277.0,STARLINK-5299,PAYLOAD,2023-05-09 10:31:35,14.9914074,0.0003543,69.9978,134.7594,269.8064,90.269,2.8337e-05,2.51e-06,0.0,0 STARLINK-5299,1 55277U 23010J   23129.43860782  .00000251  00000-0  28337-4 0  9992,2 55277  69.9978 134.7594 0003543 269.8064  90.2690 14.99140740 17710,6947.687,96.055,572.013,567.09,0.0
55277.0,STARLINK-5299,PAYLOAD,2023-05-10 10:32:50,14.99139743,0.0003535,69.9978,132.2326,269.7443,90.3311,3.6261e-05,3.48e-06,0.0,0 STARLINK-5299,1 55277U 23010J   23130.43946763  .00000348  00000-0  36261-4 0  9990,2 55277  69.9978 132.2326 0003535 269.7443  90.3311 14.99139743 17865,6947.69,96.055,572.011,567.099,0.0
55277.0,STARLINK-5299,PAYLOAD,2023-05-10 16:57:09,14.99138279,0.0003521,69.9979,131.5587,269.8692,90.2064,1.4254e-05,8e-07,0.0,0 STARLINK-5299,1 55277U 23010J   23130.70636496  .00000080  00000-0  14254-4 0  9990,2 55277  69.9979 131.5587 0003521 269.8692  90.2064 14.99138279 17901,6947.694,96.055,572.006,567.113,0.0
55277.0,STARLINK-5299,PAYLOAD,2023-05-11 08:57:59,14.99139184,0.0003421,69.9981,129.8746,269.3466,90.7302,-1.5835e-05,-2.87e-06,0.0,0 STARLINK-5299,1 55277U 23010J   23131.37360510 -.00000287  00000-0 -15835-4 0  9992,2 55277  69.9981 129.8746 0003421 269.3466  90.7302 14.99139184 18002,6947.692,96.055,571.933,567.18,0.0
55277.0,STARLINK-5299,PAYLOAD,2023-05-11 16:58:24,14.99137822,0.0003418,69.9981,129.0323,269.5803,90.4965,-2.5359e-05,-4.03e-06,0.0,0 STARLINK-5299,1 55277U 23010J   23131.70722612 -.00000403  00000-0 -25359-4 0  9996,2 55277  69.9981 129.0323 0003418 269.5803  90.4965 14.99137822 17747,6947.696,96.055,571.936,567.186,0.0
55277.0,STARLINK-5299,PAYLOAD,2023-05-12 05:47:03,14.99137233,0.0003434,69.998,127.6847,269.5092,90.5674,-2.1134e-05,-3.51e-06,0.0,0 STARLINK-5299,1 55277U 23010J   23132.24101849 -.00000351  00000-0 -21134-4 0  9998,2 55277  69.9980 127.6847 0003434 269.5092  90.5674 14.99137233 18137,6947.698,96.055,571.949,567.177,0.0
55277.0,STARLINK-5299,PAYLOAD,2023-05-12 16:59:38,14.99137447,0.0003432,69.9981,126.5055,269.8224,90.2543,-4.889e-06,-1.53e-06,0.0,0 STARLINK-5299,1 55277U 23010J   23132.70808612 -.00000153  00000-0 -48890-5 0  9990,2 55277  69.9981 126.5055 0003432 269.8224  90.2543 14.99137447 17896,6947.697,96.055,571.946,567.178,0.0
55277.0,STARLINK-5299,PAYLOAD,2023-05-13 09:00:27,14.99140117,0.0003451,69.998,124.8209,269.6373,90.4391,2.7875e-05,2.46e-06,0.0,0 STARLINK-5299,1 55277U 23010J   23133.37532322  .00000246  00000-0  27875-4 0  9996,2 55277  69.9980 124.8209 0003451 269.6373  90.4391 14.99140117 18309,6947.689,96.055,571.951,567.156,0.0
55277.0,STARLINK-5299,PAYLOAD,2023-05-13 17:00:52,14.99138872,0.0003461,69.9981,123.9784,269.7195,90.3567,2.3025e-05,1.87e-06,0.0,0 STARLINK-5299,1 55277U 23010J   23133.70894375  .00000187  00000-0  23025-4 0  9999,2 55277  69.9981 123.9784 0003461 269.7195  90.3567 14.99138872 18042,6947.693,96.055,571.962,567.153,0.0
55277.0,STARLINK-5299,PAYLOAD,2023-05-14 09:01:42,14.99138392,0.0003436,69.998,122.2939,269.4136,90.663,1.9176e-05,1.4e-06,0.0,0 STARLINK-5299,1 55277U 23010J   23134.37618424  .00000140  00000-0  19176-4 0  9993,2 55277  69.9980 122.2939 0003436 269.4136  90.6630 14.99138392 18455,6947.694,96.055,571.946,567.172,0.0
